STARLINK-2022           
1 47643U 21012Z   23208.62714205 -.00007351  00000+0 -47534-3 0  9995
2 47643  53.0550  23.5553 0001128  95.3244 264.7873 15.06385129135642
